{
    "links": {
        "self": "http://www.neowsapp.com/rest/v1/neo/54055100?api_key=iIulBulltgU6a56xZRHN4H3l9WmuAYTsLGpBGhQ2"
    },
    "id": "54055100",
    "neo_reference_id": "54055100",
    "name": "(2020 TT2)",
    "designation": "2020 TT2",
    "nasa_jpl_url": "http://ssd.jpl.nasa.gov/sbdb.cgi?sstr=54055100",
    "absolute_magnitude_h": 26.017,
    "estimated_diameter": {
        "kilometers": {
            "estimated_diameter_min": 0.0166400634,
            "estimated_diameter_max": 0.0372083129
        },
        "meters": {
            "estimated_diameter_min": 16.6400633981,
            "estimated_diameter_max": 37.2083129081
        },
        "miles": {
            "estimated_diameter_min": 0.0103396528,
            "estimated_diameter_max": 0.0231201666
        },
        "feet": {
            "estimated_diameter_min": 54.5933855991,
            "estimated_diameter_max": 122.0745213216
        }
    },
    "is_potentially_hazardous_asteroid": false,
    "close_approach_data": [
        {
            "close_approach_date": "2020-09-29",
            "close_approach_date_full": "2020-Sep-29 17:50",
            "epoch_date_close_approach": 1601401800000,
            "relative_velocity": {
                "kilometers_per_second": "5.1514963138",
                "kilometers_per_hour": "18545.3867295046",
                "miles_per_hour": "11523.3821042303"
            },
            "miss_distance": {
                "astronomical": "0.0688850391",
                "lunar": "26.7962802099",
                "kilometers": "10305055.124226717",
                "miles": "6403264.3308820146"
            },
            "orbiting_body": "Earth"
        }
    ],
    "orbital_data": {
        "orbit_id": "1",
        "orbit_determination_date": "2020-10-12 07:23:56",
        "first_observation_date": "2020-09-20",
        "last_observation_date": "2020-10-12",
        "data_arc_in_days": 22,
        "observations_used": 20,
        "orbit_uncertainty": "8",
        "minimum_orbit_intersection": ".0652151",
        "jupiter_tisserand_invariant": "4.684",
        "epoch_osculation": "2459130.5",
        "eccentricity": ".2448232762024677",
        "semi_major_axis": "1.412576309280409",
        "inclination": "8.13487886864365",
        "ascending_node_longitude": "187.9896225066504",
        "orbital_period": "613.2199908394656",
        "perihelion_distance": "1.066744749356389",
        "perihelion_argument": "177.7407847970048",
        "aphelion_distance": "1.758407869204429",
        "perihelion_time": "2459122.418671061673",
        "mean_anomaly": "4.744265453275703",
        "mean_motion": ".5870650099113356",
        "equinox": "J2000",
        "orbit_class": {
            "orbit_class_type": "AMO",
            "orbit_class_description": "Near-Earth asteroid orbits similar to that of 1221 Amor",
            "orbit_class_range": "1.017 AU < q (perihelion) < 1.3 AU"
        }
    },
    "is_sentry_object": false
}